[{"OBJECT_NAME":"ONEWEB-0191","OBJECT_ID":"2021-031AF","EPOCH":"2026-03-09T16:06:00.624384","MEAN_MOTION":13.14502346,"ECCENTRICITY":0.00015376,"INCLINATION":87.899,"RA_OF_ASC_NODE":309.5517,"ARG_OF_PERICENTER":77.494,"MEAN_ANOMALY":282.6362,"EPHEMERIS_TYPE":0,"CLASSIFICATION_TYPE":"U","NORAD_CAT_ID":48239,"ELEMENT_SET_NO":999,"REV_AT_EPOCH":23509,"BSTAR":0.00011721762,"MEAN_MOTION_DOT":5.6e-7,"MEAN_MOTION_DDOT":0},{"OBJECT_NAME":"SL-8 R\/B","OBJECT_ID":"1968-106B","EPOCH":"2026-03-09T16:20:09.900096","MEAN_MOTION":13.19131001,"ECCENTRICITY":0.00341644,"INCLINATION":74.0517,"RA_OF_ASC_NODE":137.3134,"ARG_OF_PERICENTER":143.4036,"MEAN_ANOMALY":333.6648,"EPHEMERIS_TYPE":0,"CLASSIFICATION_TYPE":"U","NORAD_CAT_ID":3577,"ELEMENT_SET_NO":999,"REV_AT_EPOCH":75627,"BSTAR":6.8339382e-5,"MEAN_MOTION_DOT":8.0e-8,"MEAN_MOTION_DDOT":0}]
